{"type": "FeatureCollection", "features": [ {"type": "Feature", "properties": {"norad_id": 33867, "name": "IRIDIUM 33 DEB", "group": "iridium-33-debris", "lat": -23.49153368319921, "lon": 166.6823346082217, "alt_km": 301.100168758805, "timestamp": "2025-12-22T05:49:03.886111+00:00", "meta": {"OBJECT_NAME": "IRIDIUM 33 DEB", "OBJECT_ID": "1997-051AL", "EPOCH": "2025-12-21T19:54:51.829056", "MEAN_MOTION": 15.90516397, "ECCENTRICITY": 0.0013415, "INCLINATION": 86.3664, "RA_OF_ASC_NODE": 345.3213, "ARG_OF_PERICENTER": 99.7758, "MEAN_ANOMALY": 260.5039, "EPHEMERIS_TYPE": 0, "CLASSIFICATION_TYPE": "U", "NORAD_CAT_ID": 33867, "ELEMENT_SET_NO": 999, "REV_AT_EPOCH": 89654, "BSTAR": 0.010104, "MEAN_MOTION_DOT": 0.02858314, "MEAN_MOTION_DDOT": 0.0062536}, "tle": {"line1": "1 33867U 97051AL  25355.82976654  .02858314  62536-2  10104-1 0  9998", "line2": "2 33867  86.3664 345.3213 0013415  99.7758 260.5039 15.90516397896545"}}, "geometry": {"type": "Point", "coordinates": [166.6823346082217, -23.49153368319921]}}, {"type": "Feature", "properties": {"norad_id": 33870, "name": "IRIDIUM 33 DEB", "group": "iridium-33-debris", "lat": 76.73207443034333, "lon": 69.78810431141089, "alt_km": 726.601685992613, "timestamp": "2025-12-22T05:49:03.886122+00:00", "meta": {"OBJECT_NAME": "IRIDIUM 33 DEB", "OBJECT_ID": "1997-051AP", "EPOCH": "2025-12-21T16:45:39.931776", "MEAN_MOTION": 14.45892249, "ECCENTRICITY": 0.0022337, "INCLINATION": 86.3739, "RA_OF_ASC_NODE": 54.4207, "ARG_OF_PERICENTER": 149.5314, "MEAN_ANOMALY": 337.9924, "EPHEMERIS_TYPE": 0, "CLASSIFICATION_TYPE": "U", "NORAD_CAT_ID": 33870, "ELEMENT_SET_NO": 999, "REV_AT_EPOCH": 88266, "BSTAR": 0.00052329, "MEAN_MOTION_DOT": 1.884e-05, "MEAN_MOTION_DDOT": 0}, "tle": {"line1": "1 33870U 97051AP  25355.69837884  .00001884  00000+0  52329-3 0  9990", "line2": "2 33870  86.3739  54.4207 0022337 149.5314 337.9924 14.45892249882660"}}, "geometry": {"type": "Point", "coordinates": [69.78810431141089, 76.73207443034333]}}, {"type": "Feature", "properties": {"norad_id": 33881, "name": "IRIDIUM 33 DEB", "group": "iridium-33-debris", "lat": -45.80850999123441, "lon": 98.88540432358705, "alt_km": 753.3671747795006, "timestamp": "2025-12-22T05:49:03.886135+00:00", "meta": {"OBJECT_NAME": "IRIDIUM 33 DEB", "OBJECT_ID": "1997-051BA", "EPOCH": "2025-12-21T08:54:02.892384", "MEAN_MOTION": 14.56711951, "ECCENTRICITY": 0.00612443, "INCLINATION": 86.3865, "RA_OF_ASC_NODE": 102.9912, "ARG_OF_PERICENTER": 146.8792, "MEAN_ANOMALY": 279.602, "EPHEMERIS_TYPE": 0, "CLASSIFICATION_TYPE": "U", "NORAD_CAT_ID": 33881, "ELEMENT_SET_NO": 999, "REV_AT_EPOCH": 87626, "BSTAR": 0.0014450867, "MEAN_MOTION_DOT": 6.645e-05, "MEAN_MOTION_DDOT": 0}, "tle": {"line1": "1 33881U 97051BA  25355.37086681  .00006645  00000+0  14451-2 0  9991", "line2": "2 33881  86.3865 102.9912 0061244 146.8792 279.6020 14.56711951876264"}}, "geometry": {"type": "Point", "coordinates": [98.88540432358705, -45.80850999123441]}}, {"type": "Feature", "properties": {"norad_id": 33884, "name": "IRIDIUM 33 DEB", "group": "iridium-33-debris", "lat": -72.96048211054756, "lon": -162.51476131213994, "alt_km": 639.035083116326, "timestamp": "2025-12-22T05:49:03.886145+00:00", "meta": {"OBJECT_NAME": "IRIDIUM 33 DEB", "OBJECT_ID": "1997-051BD", "EPOCH": "2025-12-21T19:42:17.168256", "MEAN_MOTION": 14.77591703, "ECCENTRICITY": 0.0008977, "INCLINATION": 86.3691, "RA_OF_ASC_NODE": 5.7181, "ARG_OF_PERICENTER": 287.8241, "MEAN_ANOMALY": 245.5748, "EPHEMERIS_TYPE": 0, "CLASSIFICATION_TYPE": "U", "NORAD_CAT_ID": 33884, "ELEMENT_SET_NO": 999, "REV_AT_EPOCH": 88981, "BSTAR": 0.0012316, "MEAN_MOTION_DOT": 8.831e-05, "MEAN_MOTION_DDOT": 0}, "tle": {"line1": "1 33884U 97051BD  25355.82103204  .00008831  00000+0  12316-2 0  9992", "line2": "2 33884  86.3691   5.7181 0008977 287.8241 245.5748 14.77591703889819"}}, "geometry": {"type": "Point", "coordinates": [-162.51476131213994, -72.96048211054756]}}, {"type": "Feature", "properties": {"norad_id": 33886, "name": "IRIDIUM 33 DEB", "group": "iridium-33-debris", "lat": -22.815300567078438, "lon": -115.2459936927753, "alt_km": 767.6935366500411, "timestamp": "2025-12-22T05:49:03.886156+00:00", "meta": {"OBJECT_NAME": "IRIDIUM 33 DEB", "OBJECT_ID": "1997-051BF", "EPOCH": "2025-12-21T17:43:24.779136", "MEAN_MOTION": 14.36061544, "ECCENTRICITY": 0.0013109, "INCLINATION": 86.3822, "RA_OF_ASC_NODE": 63.441, "ARG_OF_PERICENTER": 209.4261, "MEAN_ANOMALY": 269.7829, "EPHEMERIS_TYPE": 0, "CLASSIFICATION_TYPE": "U", "NORAD_CAT_ID": 33886, "ELEMENT_SET_NO": 999, "REV_AT_EPOCH": 88181, "BSTAR": 0.00014921, "MEAN_MOTION_DOT": 4.54e-06, "MEAN_MOTION_DDOT": 0}, "tle": {"line1": "1 33886U 97051BF  25355.73848124  .00000454  00000+0  14921-3 0  9999", "line2": "2 33886  86.3822  63.4410 0013109 209.4261 269.7829 14.36061544881818"}}, "geometry": {"type": "Point", "coordinates": [-115.2459936927753, -22.815300567078438]}}, {"type": "Feature", "properties": {"norad_id": 33887, "name": "IRIDIUM 33 DEB", "group": "iridium-33-debris", "lat": 0.9588649043284181, "lon": 179.2348726934786, "alt_km": 766.8055637839652, "timestamp": "2025-12-22T05:49:03.886166+00:00", "meta": {"OBJECT_NAME": "IRIDIUM 33 DEB", "OBJECT_ID": "1997-051BG", "EPOCH": "2025-12-21T18:06:57.603168", "MEAN_MOTION": 14.37228506, "ECCENTRICITY": 0.0005394, "INCLINATION": 86.3041, "RA_OF_ASC_NODE": 359.5069, "ARG_OF_PERICENTER": 190.9714, "MEAN_ANOMALY": 346.844, "EPHEMERIS_TYPE": 0, "CLASSIFICATION_TYPE": "U", "NORAD_CAT_ID": 33887, "ELEMENT_SET_NO": 999, "REV_AT_EPOCH": 88294, "BSTAR": 0.00011881, "MEAN_MOTION_DOT": 3.73e-06, "MEAN_MOTION_DDOT": 0}, "tle": {"line1": "1 33887U 97051BG  25355.75483337  .00000373  00000+0  11881-3 0  9995", "line2": "2 33887  86.3041 359.5069 0005394 190.9714 346.8440 14.37228506882940"}}, "geometry": {"type": "Point", "coordinates": [179.2348726934786, 0.9588649043284181]}}, {"type": "Feature", "properties": {"norad_id": 33953, "name": "IRIDIUM 33 DEB", "group": "iridium-33-debris", "lat": -65.7348141352556, "lon": 41.59082859527349, "alt_km": 725.0077788928629, "timestamp": "2025-12-22T05:49:03.886179+00:00", "meta": {"OBJECT_NAME": "IRIDIUM 33 DEB", "OBJECT_ID": "1997-051BN", "EPOCH": "2025-12-21T03:57:52.116192", "MEAN_MOTION": 14.55395308, "ECCENTRICITY": 0.00178869, "INCLINATION": 86.3839, "RA_OF_ASC_NODE": 50.1227, "ARG_OF_PERICENTER": 77.1433, "MEAN_ANOMALY": 336.6692, "EPHEMERIS_TYPE": 0, "CLASSIFICATION_TYPE": "U", "NORAD_CAT_ID": 33953, "ELEMENT_SET_NO": 999, "REV_AT_EPOCH": 88426, "BSTAR": 0.0006943937, "MEAN_MOTION_DOT": 3.042e-05, "MEAN_MOTION_DDOT": 0}, "tle": {"line1": "1 33953U 97051BN  25355.16518653  .00003042  00000+0  69439-3 0  9992", "line2": "2 33953  86.3839  50.1227 0017886  77.1433 336.6692 14.55395308884260"}}, "geometry": {"type": "Point", "coordinates": [41.59082859527349, -65.7348141352556]}}, {"type": "Feature", "properties": {"norad_id": 33960, "name": "IRIDIUM 33 DEB", "group": "iridium-33-debris", "lat": 44.98140667735434, "lon": -71.21386004117822, "alt_km": 602.7910670903493, "timestamp": "2025-12-22T05:49:03.886191+00:00", "meta": {"OBJECT_NAME": "IRIDIUM 33 DEB", "OBJECT_ID": "1997-051BV", "EPOCH": "2025-12-21T20:10:45.329088", "MEAN_MOTION": 14.85604614, "ECCENTRICITY": 0.00073, "INCLINATION": 86.2546, "RA_OF_ASC_NODE": 285.222, "ARG_OF_PERICENTER": 45.5917, "MEAN_ANOMALY": 13.1513, "EPHEMERIS_TYPE": 0, "CLASSIFICATION_TYPE": "U", "NORAD_CAT_ID": 33960, "ELEMENT_SET_NO": 999, "REV_AT_EPOCH": 89002, "BSTAR": 0.002534, "MEAN_MOTION_DOT": 0.00022006, "MEAN_MOTION_DDOT": 0}, "tle": {"line1": "1 33960U 97051BV  25355.84080242  .00022006  00000+0  25340-2 0  9996", "line2": "2 33960  86.2546 285.2220 0007300  45.5917  13.1513 14.85604614890028"}}, "geometry": {"type": "Point", "coordinates": [-71.21386004117822, 44.98140667735434]}}, {"type": "Feature", "properties": {"norad_id": 33966, "name": "IRIDIUM 33 DEB", "group": "iridium-33-debris", "lat": -43.66390129368052, "lon": -134.59792924512098, "alt_km": 731.1594615506538, "timestamp": "2025-12-22T05:49:03.886202+00:00", "meta": {"OBJECT_NAME": "IRIDIUM 33 DEB", "OBJECT_ID": "1997-051CB", "EPOCH": "2025-12-21T08:58:20.862048", "MEAN_MOTION": 14.49625093, "ECCENTRICITY": 0.00083762, "INCLINATION": 86.3913, "RA_OF_ASC_NODE": 42.3217, "ARG_OF_PERICENTER": 161.0555, "MEAN_ANOMALY": 212.7611, "EPHEMERIS_TYPE": 0, "CLASSIFICATION_TYPE": "U", "NORAD_CAT_ID": 33966, "ELEMENT_SET_NO": 999, "REV_AT_EPOCH": 88567, "BSTAR": 0.00039236704, "MEAN_MOTION_DOT": 1.527e-05, "MEAN_MOTION_DDOT": 0}, "tle": {"line1": "1 33966U 97051CB  25355.37385257  .00001527  00000+0  39237-3 0  9990", "line2": "2 33966  86.3913  42.3217 0008376 161.0555 212.7611 14.49625093885672"}}, "geometry": {"type": "Point", "coordinates": [-134.59792924512098, -43.66390129368052]}}, {"type": "Feature", "properties": {"norad_id": 34071, "name": "IRIDIUM 33 DEB", "group": "iridium-33-debris", "lat": -74.02556019013747, "lon": 0.7948675072542094, "alt_km": 741.1283462258934, "timestamp": "2025-12-22T05:49:03.886212+00:00", "meta": {"OBJECT_NAME": "IRIDIUM 33 DEB", "OBJECT_ID": "1997-051CE", "EPOCH": "2025-12-21T18:33:48.284064", "MEAN_MOTION": 14.49501025, "ECCENTRICITY": 0.0009924, "INCLINATION": 86.3449, "RA_OF_ASC_NODE": 13.9015, "ARG_OF_PERICENTER": 83.2656, "MEAN_ANOMALY": 276.9677, "EPHEMERIS_TYPE": 0, "CLASSIFICATION_TYPE": "U", "NORAD_CAT_ID": 34071, "ELEMENT_SET_NO": 999, "REV_AT_EPOCH": 88465, "BSTAR": 0.0004564, "MEAN_MOTION_DOT": 1.769e-05, "MEAN_MOTION_DDOT": 0}, "tle": {"line1": "1 34071U 97051CE  25355.77347551  .00001769  00000+0  45640-3 0  9990", "line2": "2 34071  86.3449  13.9015 0009924  83.2656 276.9677 14.49501025884650"}}, "geometry": {"type": "Point", "coordinates": [0.7948675072542094, -74.02556019013747]}}]}